[{"OBJECT_NAME":"STARLINK-30243","OBJECT_ID":"2023-122S","EPOCH":"2026-03-09T22:00:01.999584","MEAN_MOTION":15.26710307,"ECCENTRICITY":0.00017112,"INCLINATION":43.0057,"RA_OF_ASC_NODE":91.3153,"ARG_OF_PERICENTER":274.5466,"MEAN_ANOMALY":332.2487,"EPHEMERIS_TYPE":0,"CLASSIFICATION_TYPE":"U","NORAD_CAT_ID":57648,"ELEMENT_SET_NO":999,"REV_AT_EPOCH":578,"BSTAR":0.0013693891,"MEAN_MOTION_DOT":0.00036622,"MEAN_MOTION_DDOT":0},{"OBJECT_NAME":"FENGYUN 1C DEB","OBJECT_ID":"1999-025AQG","EPOCH":"2026-03-09T10:43:06.043872","MEAN_MOTION":15.25746961,"ECCENTRICITY":0.00178142,"INCLINATION":98.9311,"RA_OF_ASC_NODE":250.2123,"ARG_OF_PERICENTER":328.3876,"MEAN_ANOMALY":31.6286,"EPHEMERIS_TYPE":0,"CLASSIFICATION_TYPE":"U","NORAD_CAT_ID":30674,"ELEMENT_SET_NO":999,"REV_AT_EPOCH":98658,"BSTAR":0.015201752,"MEAN_MOTION_DOT":0.00411052,"MEAN_MOTION_DDOT":0}]
